full_name,neo,pha,sats,H,G,diameter,extent,albedo,rot_per,GM,BV,UB,spec_B,spec_T,orbit_id,epoch,equinox,e,a,q,i,om,w,ma,ad,n,tp,per_y,moid,moid_jup,t_jup,class,producer,data_arc,first_obs,last_obs,n_obs_used,condition_code,rms
 23606 (1996 AS1),Y,N,0,18.4,,0.866,,0.123,,,,,,,JPL 131,2460000.5,J2000,0.3611,1.75,1.118,14.36,296.62,357.62,94.85,2.38,0.4257,2459777.7,2.32,0.101,2.83,4.02,AMO,Otto Matic,13647,18/07/85,28/11/22,722,0,0.38306
 23714 (1998 EC3),Y,N,0,16.85,,,,,,,,,,,JPL 117,2460000.5,J2000,0.5163,2.128,1.029,8.4,127.86,128.95,334.55,3.23,0.3174,2460080.66,3.11,0.0809,1.9,3.53,AMO,Otto Matic,9169,01/03/98,08/04/23,741,0,0.54695
 24443 (2000 OG),Y,N,0,16.42,,,,,4.069,,,,,,JPL 132,2460000.5,J2000,0.8223,2.311,0.411,25.75,178.12,231.17,139.14,4.21,0.2805,2459504.42,3.51,0.151,1.92,2.93,APO,Otto Matic,10536,24/06/93,29/04/22,615,0,0.45414
 24445 (2000 PM8),Y,N,0,14.8,,,,,6.811,,,,,,JPL 378,2460000.5,J2000,0.546,2.21,1.003,23.78,203.16,219.07,299.51,3.42,0.3,2460202.14,3.29,0.0803,2.19,3.35,APO,Otto Matic,11460,10/04/91,25/08/22,1561,0,0.50439
 24475 (2000 VN2),Y,N,0,16.39,,,,,,,,,Sa,,JPL 243,2460000.5,J2000,0.4412,1.975,1.104,14.63,76.4,32.68,0.81,2.85,0.3551,2459998.21,2.78,0.152,2.38,3.7,AMO,Otto Matic,8170,01/11/00,16/03/23,1119,0,0.38129
 24761 Ahau (1993 BW2),Y,N,0,17.44,,,,,,,,,,,JPL 170,2460000.5,J2000,0.3058,1.335,0.927,21.92,121.05,287.53,222.53,1.74,0.6391,2460215.61,1.54,0.1,3.71,4.79,APO,Otto Matic,10387,28/01/93,07/07/21,816,0,0.51838
 25143 Itokawa (1998 SF36),Y,Y,0,19.26,,0.33,0.535x0.294x0.209,,12.132,2.10E-09,,,S(IV),,JPL 215,2460000.5,J2000,0.2801,1.324,0.953,1.62,69.08,162.81,114.48,1.7,0.6468,2459823.5,1.52,0.013,3.29,4.9,APO,Otto Matic,8588,19/09/98,25/03/22,951,0,0.44999
 25330 (1999 KV4),Y,N,0,16.79,,3.21,,0.052,4.919,,,,B,,JPL 275,2460000.5,J2000,0.3709,1.54,0.969,14.33,50.54,86.09,179.86,2.11,0.5155,2459651.63,1.91,0.173,3.02,4.36,APO,Otto Matic,15553,16/11/79,16/06/22,1422,0,0.48347
 25916 (2001 CP44),Y,N,0,13.68,,5.683,,0.177,4.6021,,,,,,JPL 625,2460000.5,J2000,0.4981,2.562,1.286,15.74,94.66,199.8,41.66,3.84,0.2404,2459827.18,4.1,0.28,1.42,3.2,AMO,Otto Matic,18171,10/04/73,09/01/23,3750,0,0.37246
 26166 (1995 QN3),Y,N,0,16.82,,,,,,,,,,,JPL 97,2460000.5,J2000,0.6442,3.301,1.174,14.78,185.71,62.88,232.87,5.43,0.1643,2460774.09,6,0.273,0.743,2.75,AMO,Otto Matic,24177,19/08/53,29/10/19,385,0,0.57066
 26310 (1998 TX6),Y,N,0,19.31,,,,,,,,,,,JPL 35,2460000.5,J2000,0.4685,2.141,1.138,5.38,210.85,98.91,314.98,3.14,0.3147,2460143.54,3.13,0.158,2.19,3.56,AMO,Otto Matic,25359,08/07/51,11/12/20,123,0,0.67714
 26379 (1999 HZ1),Y,N,0,18.2,,,,,,,,,,,JPL 25,2460000.5,J2000,0.5761,1.606,0.681,8.68,252.11,200.58,309.38,2.53,0.4842,2460105.04,2.04,0.131,2.71,4.14,APO,Otto Matic,5788,27/08/92,02/07/08,69,1,0.69688
 26663 (2000 XK47),Y,Y,0,18.19,,,,,2.572,,,,,,JPL 87,2460000.5,J2000,0.472,1.546,0.816,13.53,303.65,231.16,161.23,2.28,0.5127,2459686.03,1.92,0.0354,2.77,4.3,APO,Otto Matic,17537,12/07/74,17/07/22,396,0,0.47214
 26760 (2001 KP41),Y,N,0,15.51,,5.4,,0.042,5.3,,,,,,JPL 229,2460000.5,J2000,0.5576,2.852,1.262,11.02,146.25,155.2,166.39,4.44,0.2046,2459187.44,4.82,0.258,0.934,3.03,AMO,Otto Matic,9819,25/03/96,11/02/23,1502,0,0.43901
 26817 (1987 QB),Y,N,0,19.49,,1.172,,0.027,,,,,,,JPL 38,2460000.5,J2000,0.5942,2.803,1.138,3.5,153.19,156.58,211.01,4.47,0.21,2460710.04,4.69,0.125,0.853,3.04,AMO,Otto Matic,12226,31/05/87,19/11/20,108,0,0.54908
 27002 (1998 DV9),Y,Y,0,18.31,,,,,,,,,,,JPL 107,2460000.5,J2000,0.4332,1.744,0.989,8.7,130.35,0.81,306.86,2.5,0.4279,2460124.69,2.3,0.00336,2.57,4.01,APO,Otto Matic,8980,23/02/98,25/09/22,512,0,0.5802
 27031 (1998 RO4),Y,N,0,17.97,,,,,,,,,,,JPL 99,2460000.5,J2000,0.4249,2.14,1.231,5.36,191.86,111.84,313.67,3.05,0.3148,2460147.66,3.13,0.235,2.25,3.59,AMO,Otto Matic,25336,26/08/51,06/01/21,408,0,0.5085
 27346 (2000 DN8),Y,N,0,15.91,,1.802,,0.256,0.068,,,,,,JPL 294,2460000.5,J2000,0.399,1.875,1.127,36.95,135.21,269.25,64.88,2.62,0.3838,2459831.48,2.57,0.443,3.34,3.66,AMO,Otto Matic,16283,24/08/78,24/03/23,1198,0,0.45607
 29075 (1950 DA),Y,Y,0,17.28,,2,,0.07,2.1216,,,,,,JPL 244,2460000.5,J2000,0.5083,1.698,0.835,12.17,356.65,224.66,316.21,2.56,0.4454,2460098.83,2.21,0.0406,2.48,4.03,APO,Otto Matic,26672,23/02/50,04/03/23,1007,0,0.48126
 30825 (1990 TG1),Y,N,0,14.79,,,,,2.62428,,,,,,JPL 387,2460000.5,J2000,0.681,2.436,0.777,8.74,205.02,33.68,244.91,4.09,0.2592,2460444.48,3.8,0.0696,0.966,3.13,APO,Otto Matic,11807,16/09/90,13/01/23,1828,0,0.44121
 30997 (1995 UO5),Y,N,0,17.3,,,,,,,,,,,JPL 65,2460000.5,J2000,0.6434,1.56,0.556,36.26,38.62,151.16,262.69,2.56,0.5058,2460192.88,1.95,0.403,2.52,4.01,APO,Otto Matic,9890,26/10/95,23/11/22,260,0,0.60368
 31210 (1998 BX7),Y,N,0,16.39,,,,,6.379,,,,,,JPL 257,2460000.5,J2000,0.5023,2.605,1.296,8.96,144.92,271.34,16.96,3.91,0.2344,2459928.17,4.2,0.354,1.61,3.21,AMO,Otto Matic,24553,23/11/55,12/02/23,1385,0,0.43675
 31221 (1998 BP26),Y,N,0,17.31,,,,,2.407,,,,,,JPL 194,2460000.5,J2000,0.2571,1.723,1.28,20.22,331.03,186.82,23.42,2.17,0.4357,2459946.75,2.26,0.292,2.83,4.06,AMO,Otto Matic,8640,28/01/98,24/09/21,1028,0,0.44542
 31345 (1998 PG),Y,N,1,17.61,,,,,2.5163,,,,Sq,,JPL 185,2460000.5,J2000,0.3914,2.016,1.227,6.5,222.69,156.19,184.21,2.8,0.3444,2460510.93,2.86,0.233,2.67,3.72,AMO,Otto Matic,16246,07/10/78,31/03/23,1393,0,0.48424
 31346 (1998 PB1),Y,N,1,17.25,,,,,2.7358,,,,Sq:,,JPL 131,2460000.5,J2000,0.4298,2.029,1.157,5.96,299.73,350.51,183.87,2.9,0.3409,2460517.12,2.89,0.141,2.3,3.69,AMO,Otto Matic,8929,14/07/98,24/12/22,632,0,0.58463
 31662 (1999 HP11),Y,N,0,19.52,,,,,,,,,,,JPL 27,2460000.5,J2000,0.5479,1.598,0.722,18.82,13.95,312.04,226.01,2.47,0.488,2460275.05,2.02,0.125,3.01,4.13,APO,Otto Matic,8765,20/03/99,19/03/23,68,0,0.68173
 31669 (1999 JT6),Y,Y,0,16.15,,,,,5.807,,,,,,JPL 121,2460000.5,J2000,0.5777,2.137,0.902,9.54,78.79,39.1,268.1,3.37,0.3156,2460291.72,3.12,0.00144,1.81,3.47,APO,Otto Matic,9575,12/06/96,30/08/22,756,0,0.56462
 32906 (1994 RH),Y,N,0,15.92,,,,,2.6411,,,,S,,JPL 326,2460000.5,J2000,0.4401,2.248,1.259,18.94,331.17,92.31,127.25,3.24,0.2924,2459565.31,3.37,0.453,2.52,3.43,AMO,Otto Matic,13737,21/09/84,02/05/22,1943,0,0.38486
 33342 (1998 WT24),Y,Y,0,18.02,,0.432,,0.654,3.697,,,,,,JPL 201,2460000.5,J2000,0.4176,0.7188,0.419,7.37,81.67,167.53,136.98,1.02,1.617,2459915.81,0.609,0.0102,4,7.91,ATE,Otto Matic,8489,24/11/98,20/02/22,1842,0,0.34446
 34613 (2000 UR13),Y,N,0,16.1,,,,,10.87,,,,,,JPL 296,2460000.5,J2000,0.3873,2.069,1.268,6.18,315.29,286.14,301.7,2.87,0.3312,2460176.56,2.98,0.28,2.2,3.67,AMO,Otto Matic,32529,16/03/34,07/04/23,1242,0,0.51277
 35107 (1991 VH),Y,Y,1,16.91,,0.929,,0.408,2.6236,,,,Sk,,JPL 516,2460000.5,J2000,0.1442,1.137,0.973,13.91,139.35,206.97,332.98,1.3,0.8126,2460033.75,1.21,0.0268,3.98,5.47,APO,Shantanu Naidu,10717,09/11/91,13/03/21,3917,0,0.3151
 35396 (1997 XF11),Y,Y,0,17.04,,0.704,,0.772,3.259,,,,Xk,,JPL 359,2460000.5,J2000,0.4837,1.442,0.745,4.1,213.65,103.05,290.64,2.14,0.569,2460122.4,1.73,0.000197,3.19,4.53,APO,Otto Matic,12067,22/03/90,05/04/23,2098,0,0.41772
 35432 (1998 BG9),Y,N,0,19.39,,,,,,,,,S,,JPL 63,2460000.5,J2000,0.5451,2.501,1.138,13.14,115.32,1.6,109.88,3.86,0.2491,2459559.43,3.96,0.154,1.27,3.21,AMO,Otto Matic,8861,24/01/98,29/04/22,294,0,0.56985
 35670 (1998 SU27),Y,N,0,19.57,,,,,,,,,Sq,,JPL 25,2460000.5,J2000,0.5964,2.122,0.856,7.14,271.34,169.83,299.17,3.39,0.3189,2460191.24,3.09,0.0728,1.9,3.47,APO,Otto Matic,1238,24/09/98,13/02/02,119,0,0.6292
 36017 (1999 ND43),Y,N,0,19.3,,,,,5.79,,,,Sl,,JPL 132,2460000.5,J2000,0.3143,1.524,1.045,5.55,332.08,52.11,156.2,2,0.5241,2459702.46,1.88,0.0775,3.47,4.44,AMO,Otto Matic,8656,14/07/99,26/03/23,958,0,0.45586
 36183 (1999 TX16),Y,N,0,16.33,,2.339,,0.089,5.613,,,,Ld,,JPL 270,2460000.5,J2000,0.3325,1.551,1.035,38.22,54.65,311.19,62.45,2.07,0.5101,2459878.08,1.93,0.134,3.55,4.16,AMO,Otto Matic,9199,26/11/97,02/02/23,1226,0,0.48868
 36236 (1999 VV),Y,N,0,15.98,,,,,2.743,,,,,,JPL 249,2460000.5,J2000,0.4237,1.332,0.768,58.04,241.07,19.77,176.05,1.9,0.6408,2459725.77,1.54,0.229,3.18,4.39,APO,Otto Matic,15755,26/11/79,14/01/23,1174,0,0.45636
 36284 (2000 DM8),Y,N,0,15,,,,,3.844,,,,Sq,,JPL 406,2460000.5,J2000,0.5538,1.484,0.662,46.76,323.16,317.96,161.4,2.31,0.545,2459704.35,1.81,0.268,3.26,4.12,APO,Otto Matic,8425,30/12/99,23/01/23,2110,0,0.43028
 37336 (2001 RM),Y,N,0,15.75,,,,,,,,,S,,JPL 265,2460000.5,J2000,0.4835,2.253,1.164,36.67,223.64,118.02,134.76,3.34,0.2914,2459538.06,3.38,0.35,2.85,3.23,AMO,Otto Matic,16293,13/07/77,20/02/22,1380,0,0.42622
 37638 (1993 VB),Y,Y,0,19.29,,,,,3.5301,,,,,,JPL 88,2460000.5,J2000,0.5196,1.913,0.919,5.08,145.59,323.15,13.13,2.91,0.3724,2459965.25,2.65,0.000505,2.26,3.75,APO,Otto Matic,10739,06/11/93,02/04/23,872,0,0.31942
 37655 Illapa (1994 PM),Y,Y,0,17.85,,,,,2.6556,,,,,,JPL 125,2460000.5,J2000,0.7524,1.478,0.366,18.03,139.54,303.88,285.85,2.59,0.5487,2460135.65,1.8,0.0245,2.83,4.19,APO,Otto Matic,10167,01/08/94,02/06/22,649,0,0.37472
 38071 (1999 GU3),Y,Y,0,19.57,,,,,216,,,,,,JPL 56,2460000.5,J2000,0.5077,2.089,1.029,12.74,195.49,8.82,326.25,3.15,0.3264,2460103.92,3.02,0.0312,1.8,3.56,AMO,Otto Matic,8691,10/04/99,25/01/23,474,0,0.52921
 38086 Beowulf (1999 JB),Y,N,0,17.36,,0.643,,0.469,2.4104,,,,,,JPL 197,2460000.5,J2000,0.5663,1.42,0.616,23.67,165.33,178.97,327.38,2.22,0.5824,2460056.5,1.69,0.386,3.2,4.45,APO,Otto Matic,10918,01/05/92,23/03/22,913,0,0.48452
 38091 (1999 JT3),Y,N,0,16.3,,2.517,,0.092,,,,,,,JPL 144,2460000.5,J2000,0.4013,2.169,1.299,9.33,64.82,225.09,121.41,3.04,0.3085,2459606.93,3.19,0.307,2.19,3.57,AMO,Otto Matic,15426,30/09/80,25/12/22,832,0,0.53858
 38239 (1999 OR3),Y,N,0,18.26,,,,,,,,,,,JPL 36,2460000.5,J2000,0.5756,2.036,0.864,9.44,199.94,28.1,66.36,3.21,0.3393,2459804.91,2.9,0.055,1.79,3.56,APO,Otto Matic,7108,27/07/99,11/01/19,183,0,0.60042
